BEIJING 1               
1 28890U 05043A   22272.54058779  .00000263  00000+0  62329-4 0  9995
2 28890  98.1308  33.0997 0014798 203.9129 156.1389 14.61497829902346
HJ-1A                   
1 33320U 08041A   22272.48392131  .00000369  00000+0  57851-4 0  9997
2 33320  97.6711 300.6321 0019571 253.1455 106.7620 14.77922469757751
HJ-1B                   
1 33321U 08041B   22272.50288847  .00000783  00000+0  11478-3 0  9993
2 33321  97.6875 304.4245 0032849 272.6853  87.0606 14.77890906757756
YAOGAN 4                
1 33446U 08061A   22272.40573871  .00000664  00000+0  10005-3 0  9999
2 33446  97.8226 209.4016 0016762 152.8637 207.3453 14.77478219744944
DEIMOS-1                
1 35681U 09041A   22272.52964438  .00000317  00000+0  57719-4 0  9996
2 35681  97.7035 118.2122 0000329 163.4262 196.6976 14.72116680707083
UK-DMC 2                
1 35683U 09041C   22272.46379163  .00000508  00000+0  89211-4 0  9990
2 35683  97.7063  79.9620 0001064  66.8012 293.3313 14.71504062706801
RISAT 1                 
1 38248U 12017A   22272.48395063  .00003565  00000+0  20841-3 0  9995
2 38248  97.5531 282.7448 0002140 253.2841 106.8155 15.12519389574561
DMC3-FM1                
1 40715U 15032A   22272.43242088  .00000414  00000+0  58400-4 0  9993
2 40715  97.8310 157.1312 0005913 167.1382 192.9976 14.82201363388690
DMC3-FM2                
1 40716U 15032B   22272.45545863  .00000420  00000+0  59209-4 0  9998
2 40716  97.8349 157.8486 0007639 173.2496 186.8827 14.82194095388705
DMC3-FM3                
1 40717U 15032C   22272.40909202  .00000406  00000+0  57405-4 0  9995
2 40717  97.8382 158.7599 0009682 173.3110 186.8229 14.82221746388690
